ONEWEB-0564             
1 55801U 23029F   25208.44104997  .00000056  00000+0  10683-3 0  9991
2 55801  87.9281 339.1760 0001814 110.8311 249.3017 13.20771290118282
ONEWEB-0638             
1 55802U 23029G   25208.82683883 -.00000134  00000+0 -39521-3 0  9991
2 55802  87.9066 354.3085 0002210 107.4413 252.6958 13.14502867117497
ONEWEB-0639             
1 55803U 23029H   25208.46020902  .00000046  00000+0  81338-4 0  9993
2 55803  87.9232   9.5356 0002735  75.1784 284.9651 13.19726546116075
ONEWEB-0640             
1 55804U 23029J   25208.45575848  .00000132  00000+0  32239-3 0  9998
2 55804  87.9064 354.3692 0002552 101.1953 258.9464 13.14504288116758
ONEWEB-0641             
1 55805U 23029K   25208.45547131  .00000017  00000+0  93074-5 0  9991
2 55805  87.9233   9.5082 0001972  87.4922 272.6436 13.19724319116088
ONEWEB-0642             
1 55806U 23029L   25208.52656842  .00000028  00000+0  38046-4 0  9999
2 55806  87.9231   9.5315 0002355  71.8764 288.2625 13.19725945116082
ONEWEB-0643             
1 55807U 23029M   25208.42562755 -.00000108  00000+0 -32623-3 0  9993
2 55807  87.9066 354.3578 0001919  72.9381 287.1959 13.14504035116722
ONEWEB-0644             
1 55808U 23029N   25208.52182327  .00000017  00000+0  10764-4 0  9998
2 55808  87.9234   9.5380 0002087  79.5810 280.5557 13.19726322116087
ONEWEB-0645             
1 55809U 23029P   25208.51787011 -.00000003  00000+0 -40057-4 0  9994
2 55809  87.9215   9.5314 0002167  92.3302 267.8079 13.19724721116080
ONEWEB-0646             
1 55810U 23029Q   25208.47207392  .00000084  00000+0  17874-3 0  9997
2 55810  87.9215   9.5317 0001861  85.7524 274.3821 13.19725050116069
ONEWEB-0648             
1 55811U 23029R   25208.39392351  .00000270  00000+0  69413-3 0  9992
2 55811  87.9063 354.3398 0002633  82.4638 277.6791 13.14501675116724
ONEWEB-0649             
1 55812U 23029S   25208.51076047 -.00000046  00000+0 -14665-3 0  9990
2 55812  87.9229   9.5171 0002255  85.7312 274.4078 13.19726293116107
ONEWEB-0650             
1 55813U 23029T   25208.50601945 -.00000004  00000+0 -42356-4 0  9994
2 55813  87.9232   9.5284 0001912  87.4369 272.6983 13.19726590116078
ONEWEB-0652             
1 55814U 23029U   25208.83158611 -.00000077  00000+0 -24089-3 0  9990
2 55814  87.9066 354.2632 0001719 100.7106 259.4218 13.14504395117442
ONEWEB-0653             
1 55815U 23029V   25208.43514311 -.00000134  00000+0 -39721-3 0  9993
2 55815  87.9065 354.3318 0001927 102.5335 257.6010 13.14502264116733
ONEWEB-0654             
1 55816U 23029W   25208.88709063 -.00000222  00000+0 -63437-3 0  9992
2 55816  87.9062 354.2414 0001701 108.5855 251.5460 13.14501401117500
ONEWEB-0656             
1 55817U 23029X   25208.43471576  .00000003  00000+0 -24547-4 0  9995
2 55817  87.9295 339.1199 0001720 113.0127 247.1187 13.20769991118285
