[{"OBJECT_NAME":"ONEWEB-0564","OBJECT_ID":"2023-029F","EPOCH":"2025-07-27T10:35:06.717408","MEAN_MOTION":13.2077129,"ECCENTRICITY":0.0001814,"INCLINATION":87.9281,"RA_OF_ASC_NODE":339.176,"ARG_OF_PERICENTER":110.8311,"MEAN_ANOMALY":249.3017,"EPHEMERIS_TYPE":0,"CLASSIFICATION_TYPE":"U","NORAD_CAT_ID":55801,"ELEMENT_SET_NO":999,"REV_AT_EPOCH":11828,"BSTAR":0.00010683,"MEAN_MOTION_DOT":5.6e-7,"MEAN_MOTION_DDOT":0},{"OBJECT_NAME":"ONEWEB-0638","OBJECT_ID":"2023-029G","EPOCH":"2025-07-27T19:50:38.874912","MEAN_MOTION":13.14502867,"ECCENTRICITY":0.000221,"INCLINATION":87.9066,"RA_OF_ASC_NODE":354.3085,"ARG_OF_PERICENTER":107.4413,"MEAN_ANOMALY":252.6958,"EPHEMERIS_TYPE":0,"CLASSIFICATION_TYPE":"U","NORAD_CAT_ID":55802,"ELEMENT_SET_NO":999,"REV_AT_EPOCH":11749,"BSTAR":-0.00039521,"MEAN_MOTION_DOT":-1.34e-6,"MEAN_MOTION_DDOT":0},{"OBJECT_NAME":"ONEWEB-0639","OBJECT_ID":"2023-029H","EPOCH":"2025-07-27T11:02:42.059328","MEAN_MOTION":13.19726546,"ECCENTRICITY":0.0002735,"INCLINATION":87.9232,"RA_OF_ASC_NODE":9.5356,"ARG_OF_PERICENTER":75.1784,"MEAN_ANOMALY":284.9651,"EPHEMERIS_TYPE":0,"CLASSIFICATION_TYPE":"U","NORAD_CAT_ID":55803,"ELEMENT_SET_NO":999,"REV_AT_EPOCH":11607,"BSTAR":8.1338e-5,"MEAN_MOTION_DOT":4.6e-7,"MEAN_MOTION_DDOT":0},{"OBJECT_NAME":"ONEWEB-0640","OBJECT_ID":"2023-029J","EPOCH":"2025-07-27T10:56:17.532672","MEAN_MOTION":13.14504288,"ECCENTRICITY":0.0002552,"INCLINATION":87.9064,"RA_OF_ASC_NODE":354.3692,"ARG_OF_PERICENTER":101.1953,"MEAN_ANOMALY":258.9464,"EPHEMERIS_TYPE":0,"CLASSIFICATION_TYPE":"U","NORAD_CAT_ID":55804,"ELEMENT_SET_NO":999,"REV_AT_EPOCH":11675,"BSTAR":0.00032239,"MEAN_MOTION_DOT":1.32e-6,"MEAN_MOTION_DDOT":0},{"OBJECT_NAME":"ONEWEB-0641","OBJECT_ID":"2023-029K","EPOCH":"2025-07-27T10:55:52.721184","MEAN_MOTION":13.19724319,"ECCENTRICITY":0.0001972,"INCLINATION":87.9233,"RA_OF_ASC_NODE":9.5082,"ARG_OF_PERICENTER":87.4922,"MEAN_ANOMALY":272.6436,"EPHEMERIS_TYPE":0,"CLASSIFICATION_TYPE":"U","NORAD_CAT_ID":55805,"ELEMENT_SET_NO":999,"REV_AT_EPOCH":11608,"BSTAR":9.3074e-6,"MEAN_MOTION_DOT":1.7e-7,"MEAN_MOTION_DDOT":0},{"OBJECT_NAME":"ONEWEB-0642","OBJECT_ID":"2023-029L","EPOCH":"2025-07-27T12:38:15.511488","MEAN_MOTION":13.19725945,"ECCENTRICITY":0.0002355,"INCLINATION":87.9231,"RA_OF_ASC_NODE":9.5315,"ARG_OF_PERICENTER":71.8764,"MEAN_ANOMALY":288.2625,"EPHEMERIS_TYPE":0,"CLASSIFICATION_TYPE":"U","NORAD_CAT_ID":55806,"ELEMENT_SET_NO":999,"REV_AT_EPOCH":11608,"BSTAR":3.8046e-5,"MEAN_MOTION_DOT":2.8e-7,"MEAN_MOTION_DDOT":0},{"OBJECT_NAME":"ONEWEB-0643","OBJECT_ID":"2023-029M","EPOCH":"2025-07-27T10:12:54.220320","MEAN_MOTION":13.14504035,"ECCENTRICITY":0.0001919,"INCLINATION":87.9066,"RA_OF_ASC_NODE":354.3578,"ARG_OF_PERICENTER":72.9381,"MEAN_ANOMALY":287.1959,"EPHEMERIS_TYPE":0,"CLASSIFICATION_TYPE":"U","NORAD_CAT_ID":55807,"ELEMENT_SET_NO":999,"REV_AT_EPOCH":11672,"BSTAR":-0.00032623,"MEAN_MOTION_DOT":-1.08e-6,"MEAN_MOTION_DDOT":0},{"OBJECT_NAME":"ONEWEB-0644","OBJECT_ID":"2023-029N","EPOCH":"2025-07-27T12:31:25.530528","MEAN_MOTION":13.19726322,"ECCENTRICITY":0.0002087,"INCLINATION":87.9234,"RA_OF_ASC_NODE":9.538,"ARG_OF_PERICENTER":79.581,"MEAN_ANOMALY":280.5557,"EPHEMERIS_TYPE":0,"CLASSIFICATION_TYPE":"U","NORAD_CAT_ID":55808,"ELEMENT_SET_NO":999,"REV_AT_EPOCH":11608,"BSTAR":1.0764e-5,"MEAN_MOTION_DOT":1.7e-7,"MEAN_MOTION_DDOT":0},{"OBJECT_NAME":"ONEWEB-0645","OBJECT_ID":"2023-029P","EPOCH":"2025-07-27T12:25:43.977504","MEAN_MOTION":13.19724721,"ECCENTRICITY":0.0002167,"INCLINATION":87.9215,"RA_OF_ASC_NODE":9.5314,"ARG_OF_PERICENTER":92.3302,"MEAN_ANOMALY":267.8079,"EPHEMERIS_TYPE":0,"CLASSIFICATION_TYPE":"U","NORAD_CAT_ID":55809,"ELEMENT_SET_NO":999,"REV_AT_EPOCH":11608,"BSTAR":-4.0057e-5,"MEAN_MOTION_DOT":-3.0e-8,"MEAN_MOTION_DDOT":0},{"OBJECT_NAME":"ONEWEB-0646","OBJECT_ID":"2023-029Q","EPOCH":"2025-07-27T11:19:47.186688","MEAN_MOTION":13.1972505,"ECCENTRICITY":0.0001861,"INCLINATION":87.9215,"RA_OF_ASC_NODE":9.5317,"ARG_OF_PERICENTER":85.7524,"MEAN_ANOMALY":274.3821,"EPHEMERIS_TYPE":0,"CLASSIFICATION_TYPE":"U","NORAD_CAT_ID":55810,"ELEMENT_SET_NO":999,"REV_AT_EPOCH":11606,"BSTAR":0.00017874,"MEAN_MOTION_DOT":8.4e-7,"MEAN_MOTION_DDOT":0},{"OBJECT_NAME":"ONEWEB-0648","OBJECT_ID":"2023-029R","EPOCH":"2025-07-27T09:27:14.991264","MEAN_MOTION":13.14501675,"ECCENTRICITY":0.0002633,"INCLINATION":87.9063,"RA_OF_ASC_NODE":354.3398,"ARG_OF_PERICENTER":82.4638,"MEAN_ANOMALY":277.6791,"EPHEMERIS_TYPE":0,"CLASSIFICATION_TYPE":"U","NORAD_CAT_ID":55811,"ELEMENT_SET_NO":999,"REV_AT_EPOCH":11672,"BSTAR":0.00069413,"MEAN_MOTION_DOT":2.7e-6,"MEAN_MOTION_DDOT":0},{"OBJECT_NAME":"ONEWEB-0649","OBJECT_ID":"2023-029S","EPOCH":"2025-07-27T12:15:29.704608","MEAN_MOTION":13.19726293,"ECCENTRICITY":0.0002255,"INCLINATION":87.9229,"RA_OF_ASC_NODE":9.5171,"ARG_OF_PERICENTER":85.7312,"MEAN_ANOMALY":274.4078,"EPHEMERIS_TYPE":0,"CLASSIFICATION_TYPE":"U","NORAD_CAT_ID":55812,"ELEMENT_SET_NO":999,"REV_AT_EPOCH":11610,"BSTAR":-0.00014665,"MEAN_MOTION_DOT":-4.6e-7,"MEAN_MOTION_DDOT":0},{"OBJECT_NAME":"ONEWEB-0650","OBJECT_ID":"2023-029T","EPOCH":"2025-07-27T12:08:40.080480","MEAN_MOTION":13.1972659,"ECCENTRICITY":0.0001912,"INCLINATION":87.9232,"RA_OF_ASC_NODE":9.5284,"ARG_OF_PERICENTER":87.4369,"MEAN_ANOMALY":272.6983,"EPHEMERIS_TYPE":0,"CLASSIFICATION_TYPE":"U","NORAD_CAT_ID":55813,"ELEMENT_SET_NO":999,"REV_AT_EPOCH":11607,"BSTAR":-4.2356e-5,"MEAN_MOTION_DOT":-4.0e-8,"MEAN_MOTION_DDOT":0},{"OBJECT_NAME":"ONEWEB-0652","OBJECT_ID":"2023-029U","EPOCH":"2025-07-27T19:57:29.039904","MEAN_MOTION":13.14504395,"ECCENTRICITY":0.0001719,"INCLINATION":87.9066,"RA_OF_ASC_NODE":354.2632,"ARG_OF_PERICENTER":100.7106,"MEAN_ANOMALY":259.4218,"EPHEMERIS_TYPE":0,"CLASSIFICATION_TYPE":"U","NORAD_CAT_ID":55814,"ELEMENT_SET_NO":999,"REV_AT_EPOCH":11744,"BSTAR":-0.00024089,"MEAN_MOTION_DOT":-7.7e-7,"MEAN_MOTION_DDOT":0},{"OBJECT_NAME":"ONEWEB-0653","OBJECT_ID":"2023-029V","EPOCH":"2025-07-27T10:26:36.364704","MEAN_MOTION":13.14502264,"ECCENTRICITY":0.0001927,"INCLINATION":87.9065,"RA_OF_ASC_NODE":354.3318,"ARG_OF_PERICENTER":102.5335,"MEAN_ANOMALY":257.601,"EPHEMERIS_TYPE":0,"CLASSIFICATION_TYPE":"U","NORAD_CAT_ID":55815,"ELEMENT_SET_NO":999,"REV_AT_EPOCH":11673,"BSTAR":-0.00039721,"MEAN_MOTION_DOT":-1.34e-6,"MEAN_MOTION_DDOT":0},{"OBJECT_NAME":"ONEWEB-0654","OBJECT_ID":"2023-029W","EPOCH":"2025-07-27T21:17:24.630432","MEAN_MOTION":13.14501401,"ECCENTRICITY":0.0001701,"INCLINATION":87.9062,"RA_OF_ASC_NODE":354.2414,"ARG_OF_PERICENTER":108.5855,"MEAN_ANOMALY":251.546,"EPHEMERIS_TYPE":0,"CLASSIFICATION_TYPE":"U","NORAD_CAT_ID":55816,"ELEMENT_SET_NO":999,"REV_AT_EPOCH":11750,"BSTAR":-0.00063437,"MEAN_MOTION_DOT":-2.22e-6,"MEAN_MOTION_DDOT":0},{"OBJECT_NAME":"ONEWEB-0656","OBJECT_ID":"2023-029X","EPOCH":"2025-07-27T10:25:59.441664","MEAN_MOTION":13.20769991,"ECCENTRICITY":0.000172,"INCLINATION":87.9295,"RA_OF_ASC_NODE":339.1199,"ARG_OF_PERICENTER":113.0127,"MEAN_ANOMALY":247.1187,"EPHEMERIS_TYPE":0,"CLASSIFICATION_TYPE":"U","NORAD_CAT_ID":55817,"ELEMENT_SET_NO":999,"REV_AT_EPOCH":11828,"BSTAR":-2.4547e-5,"MEAN_MOTION_DOT":3.0e-8,"MEAN_MOTION_DDOT":0}]
